#aV2011  3 19  0  0   .00000000      96 DD+AD WGS84 FIT  NGA
## 1627 518400.00000000   900.00000000 55639  .0000000000000
+   32     1  2  3  4  5  6  7  8  9 10 11 12 13 14 15 16 17
+         18 19 20 21 22 23 24 25 26 27 28 29 30 31 32  0  0
+          0  0  0  0  0  0  0  0  0  0  0  0  0  0  0  0  0
+          0  0  0  0  0  0  0  0  0  0  0  0  0  0  0  0  0
+          0  0  0  0  0  0  0  0  0  0  0  0  0  0  0  0  0
++         0  0  0  0  0  0  0  0  0  0  0  0  0  0  0  0  0
++         0  0  0  0  0  0  0  0  0  0  0  0  0  0  0  0  0
++         0  0  0  0  0  0  0  0  0  0  0  0  0  0  0  0  0
++         0  0  0  0  0  0  0  0  0  0  0  0  0  0  0  0  0
++         0  0  0  0  0  0  0  0  0  0  0  0  0  0  0  0  0
%c cc cc ccc ccc cccc cccc cccc cccc ccccc ccccc ccccc ccccc
%c cc cc ccc ccc cccc cccc cccc cccc ccccc ccccc ccccc ccccc
%f  0.0000000  0.000000000  0.00000000000  0.000000000000000
%f  0.0000000  0.000000000  0.00000000000  0.000000000000000
%i    0    0    0    0      0      0      0      0         0
%i    0    0    0    0      0      0      0      0         0
/*      NGA, ST. LOUIS,MO.                                  
/*   EPHEMERIS COMPUTED FROM  3 DAYS OF DATA                
/* CCCCCCCCCCCCCCCCCCCCCCCCCCCCCCCCCCCCCCCCCCCCCCCCCCCCCCCCC
/* CCCCCCCCCCCCCCCCCCCCCCCCCCCCCCCCCCCCCCCCCCCCCCCCCCCCCCCCC
*  2011  3 19 13  0   .00000000                                                 
P  1 -12558.958948   8255.341183  21781.668525   -216.526686                    
V  1 -13912.977473 -24197.577909   1281.405731      -.027719                    
P  2  13111.215370 -13616.751153  18494.798687    325.942888                    
V  2  23680.850857   1834.684034 -15944.194011       .019183                    
P  3  -9583.682224  24567.123392  -1225.226059    690.443272                    
V  3  -4206.319183   -615.889302  31177.473704       .050377                    
P  4  23806.554255  -6927.668553   9780.578682     64.842542                    
V  4  12612.440400   3031.492622 -27612.619300       .103314                    
P  5   2614.236420 -20020.795174  17181.253929   -131.430255                    
V  5  12487.593473  18110.523363  19282.945814      -.058412                    
P  6 -13992.525295  22272.536090   2892.463709    -90.490870                    
V  6  -1706.354550  -4851.537333  31036.012480     -1.249630                    
P  7  24597.619432   6059.388227   8324.090434      5.976368                    
V  7 -10523.629159   1876.485380  29548.704624       .008878                    
P  8  26735.335183    838.408878  -2444.805196      7.574788                    
V  8   2949.459621   1498.699670  31954.346290      -.000184                    
P  9  -8551.105772 -14117.266538 -21358.751027     68.548328                    
V  9  25789.714922   -869.211198  -9999.867460       .023058                    
P 10  14167.696506  -6046.340686  21433.660756    -69.253503                    
V 10  13133.512704  24449.880463  -1399.882033      -.010754                    
P 11   8893.041407  14922.525133 -20453.181082   -135.699622                    
V 11 -24652.184995   6830.926672  -5468.605899      -.030057                    
P 12 -10803.619634 -24167.953369  -3084.572721    -18.185219                    
V 12   3845.230000   2377.692601 -31613.445579       .028878                    
P 13  12549.547639   7333.747144  22087.584970    278.466861                    
V 13 -16208.022716  23211.932265   1444.940109      -.014485                    
P 14 -19019.316407  10391.729970 -15104.906301    138.506059                    
V 14   9419.258330 -17116.844330 -23525.400409       .024460                    
P 15    145.557723 -21893.921839 -14911.703923   -142.122648                    
V 15  11449.216850 -15401.458342  22872.207801       .031654                    
P 16  -4943.427831  18025.441921  18781.975508   -158.813111                    
V 16 -12277.983661 -20495.495086  16755.311239      -.028214                    
P 17  18957.504193  -9601.546697 -15659.688393    184.003883                    
V 17  -8960.797416  18244.980056 -22070.001514       .003127                    
P 18 -18768.262359 -10846.628541 -15287.235080    127.296442                    
V 18  -7372.291532 -18623.510301  21460.617666       .020448                    
P 19  -5207.000575  22634.199339 -12561.571394   -121.738264                    
V 19 -11415.714636  11634.876061  26027.201322      -.037942                    
P 20  14265.031231  22437.213976    537.200766     48.727299                    
V 20  -2635.675882   2628.703142 -31087.252639       .000656                    
P 21 -25240.565524  -5992.228225   7439.139143   -131.462886                    
V 21   8866.124410  -2741.267825  28826.624912      -.026440                    
P 22 -16639.223608   1280.126824 -20514.897844    151.527940                    
V 22 -11733.665068 -23802.162693   7867.514993      -.006337                    
P 23   4544.993973  17878.986986  18975.459086    319.094265                    
V 23 -13816.191293  19936.092603 -15803.553141      -.024739                    
P 24  11653.611817  14415.457743 -19063.226443    374.567983                    
V 24 -24313.394938   -145.391825 -14656.340235       .030469                    
P 25 -17845.616163 -17087.184010   9756.238525    -71.226472                    
V 25  -4130.288616 -11948.294816 -28424.814182      -.006700                    
P 26  11360.161529 -23154.491578  -5898.766696   -149.256780                    
V 26   5639.698596  -4357.314755  31460.274392      -.100551                    
P 27  -2411.121051 -14354.880745 -21568.215415    247.112402                    
V 27  28902.571215  -1150.559261  -2102.001577       .037288                    
P 28  16932.868038   3622.708123 -19700.751645     26.133800                    
V 28  11014.804600  23624.255388  13209.983029       .022875                    
P 29 -11104.166451 -10730.446453  21694.688907    193.491128                    
V 29  14999.312422 -22868.416811  -3607.467788       .029162                    
P 30  -9785.661358  12202.182874  21054.874994    330.366827                    
V 30 -15194.124648 -23174.141132   6279.221094       .029896                    
P 31 -22204.940304   8048.492601  12565.838016     55.118769                    
V 31 -15483.224673  -1894.900318 -26382.538681       .048910                    
P 32   6829.006670  25124.770275  -5956.256689   -218.098297                    
V 32  -5616.887811  -6070.594277 -30164.760299      -.075392                    
EOF
